$$SOE
2460154.500000000, A.D. 2023-Jul-29 00:00:00.0000, 4.253707757546274E+08, 2.152067642717082E+08, 7.875698478533432E+07,
2460161.500000000, A.D. 2023-Aug-05 00:00:00.0000, 4.207047267195260E+08, 2.237355339222735E+08, 7.876758730779889E+07,
2460168.500000000, A.D. 2023-Aug-12 00:00:00.0000, 4.158577335351804E+08, 2.321681994062203E+08, 7.874406093106137E+07,
2460175.500000000, A.D. 2023-Aug-19 00:00:00.0000, 4.108316388852932E+08, 2.405009856016580E+08, 7.868636842963719E+07,
2460182.500000000, A.D. 2023-Aug-26 00:00:00.0000, 4.056283550525553E+08, 2.487301418806716E+08, 7.859448501021670E+07,
2460189.500000000, A.D. 2023-Sep-02 00:00:00.0000, 4.002498639071758E+08, 2.568519431304455E+08, 7.846839840295099E+07,
2460196.500000000, A.D. 2023-Sep-09 00:00:00.0000, 3.946982169097326E+08, 2.648626906853240E+08, 7.830810894185038E+07,
2460203.500000000, A.D. 2023-Sep-16 00:00:00.0000, 3.889755352967321E+08, 2.727587131126318E+08, 7.811362961425141E+07,
2460210.500000000, A.D. 2023-Sep-23 00:00:00.0000, 3.830840108654642E+08, 2.805363671391662E+08, 7.788498606460397E+07,
2460217.500000000, A.D. 2023-Sep-30 00:00:00.0000, 3.770259070175477E+08, 2.881920399077861E+08, 7.762221668040794E+07,
2460224.500000000, A.D. 2023-Oct-07 00:00:00.0000, 3.708035577041056E+08, 2.957221520205642E+08, 7.732537293098140E+07,
2460231.500000000, A.D. 2023-Oct-14 00:00:00.0000, 3.644193653107995E+08, 3.031231580571458E+08, 7.699451959314007E+07,
2460238.500000000, A.D. 2023-Oct-21 00:00:00.0000, 3.578758007111869E+08, 3.103915461717612E+08, 7.662973469882581E+07,
2460245.500000000, A.D. 2023-Oct-28 00:00:00.0000, 3.511754040620868E+08, 3.175238390290622E+08, 7.623110951986854E+07,
2460252.500000000, A.D. 2023-Nov-04 00:00:00.0000, 3.443207850893160E+08, 3.245165953095223E+08, 7.579874864197658E+07,
2460259.500000000, A.D. 2023-Nov-11 00:00:00.0000, 3.373146230408153E+08, 3.313664111856032E+08, 7.533277006326556E+07,
2460266.500000000, A.D. 2023-Nov-18 00:00:00.0000, 3.301596665261135E+08, 3.380699217048438E+08, 7.483330529234260E+07,
2460273.500000000, A.D. 2023-Nov-25 00:00:00.0000, 3.228587333138821E+08, 3.446238021026305E+08, 7.430049944127795E+07,
2460280.500000000, A.D. 2023-Dec-02 00:00:00.0000, 3.154147101142670E+08, 3.510247690337545E+08, 7.373451131004508E+07,
2460287.500000000, A.D. 2023-Dec-09 00:00:00.0000, 3.078305524222257E+08, 3.572695816644684E+08, 7.313551345060089E+07,
2460294.500000000, A.D. 2023-Dec-16 00:00:00.0000, 3.001092847081379E+08, 3.633550426385495E+08, 7.250369218548074E+07,
2460301.500000000, A.D. 2023-Dec-23 00:00:00.0000, 2.922540013035036E+08, 3.692779996054978E+08, 7.183924760527414E+07,
2460308.500000000, A.D. 2023-Dec-30 00:00:00.0000, 2.842678666402143E+08, 3.750353483591208E+08, 7.114239375320372E+07,
2460315.500000000, A.D. 2024-Jan-06 00:00:00.0000, 2.761541130674559E+08, 3.806240352251773E+08, 7.041335896593542E+07,
2460322.500000000, A.D. 2024-Jan-13 00:00:00.0000, 2.679160394174974E+08, 3.860410568934910E+08, 6.965238593235713E+07,
2460329.500000000, A.D. 2024-Jan-20 00:00:00.0000, 2.595570115440745E+08, 3.912834607795779E+08, 6.885973161003678E+07,
2460336.500000000, A.D. 2024-Jan-27 00:00:00.0000, 2.510804628025695E+08, 3.963483465667577E+08, 6.803566723795827E+07,
2460343.500000000, A.D. 2024-Feb-03 00:00:00.0000, 2.424898940409688E+08, 4.012328679797916E+08, 6.718047840678236E+07,
2460350.500000000, A.D. 2024-Feb-10 00:00:00.0000, 2.337888733767256E+08, 4.059342344990342E+08, 6.629446513704544E+07,
2460357.500000000, A.D. 2024-Feb-17 00:00:00.0000, 2.249810358961150E+08, 4.104497130230759E+08, 6.537794195288548E+07,
2460364.500000000, A.D. 2024-Feb-24 00:00:00.0000, 2.160700833098570E+08, 4.147766294946187E+08, 6.443123794886658E+07,
2460371.500000000, A.D. 2024-Mar-02 00:00:00.0000, 2.070597835921044E+08, 4.189123704569545E+08, 6.345469684422597E+07,
2460378.500000000, A.D. 2024-Mar-09 00:00:00.0000, 1.979539707392626E+08, 4.228543844781520E+08, 6.244867700638992E+07,
2460385.500000000, A.D. 2024-Mar-16 00:00:00.0000, 1.887565450417385E+08, 4.266001836405096E+08, 6.141355142342409E+07,
2460392.500000000, A.D. 2024-Mar-23 00:00:00.0000, 1.794714737635676E+08, 4.301473462045275E+08, 6.034970772531247E+07,
2460399.500000000, A.D. 2024-Mar-30 00:00:00.0000, 1.701027899868688E+08, 4.334935204186108E+08, 5.925754845667651E+07,
2460406.500000000, A.D. 2024-Apr-06 00:00:00.0000, 1.606545898727004E+08, 4.366364261050490E+08, 5.813749130166677E+07,
2460413.500000000, A.D. 2024-Apr-13 00:00:00.0000, 1.511310318867081E+08, 4.395738548607037E+08, 5.698996900394133E+07,
2460420.500000000, A.D. 2024-Apr-20 00:00:00.0000, 1.415363370366525E+08, 4.423036715492412E+08, 5.581542928753623E+07,
2460427.500000000, A.D. 2024-Apr-27 00:00:00.0000, 1.318747886023670E+08, 4.448238165217459E+08, 5.461433487126133E+07,
2460434.500000000, A.D. 2024-May-04 00:00:00.0000, 1.221507314430698E+08, 4.471323078613424E+08, 5.338716351068968E+07,
2460441.500000000, A.D. 2024-May-11 00:00:00.0000, 1.123685711177350E+08, 4.492272435496101E+08, 5.213440803730577E+07,
2460448.500000000, A.D. 2024-May-18 00:00:00.0000, 1.025327728981726E+08, 4.511068035760173E+08, 5.085657638881543E+07,
2460455.500000000, A.D. 2024-May-25 00:00:00.0000, 9.264786069746076E+07, 4.527692519825943E+08, 4.955419162747899E+07,
2460462.500000000, A.D. 2024-Jun-01 00:00:00.0000, 8.271841597170027E+07, 4.542129387851619E+08, 4.822779193588224E+07,
2460469.500000000, A.D. 2024-Jun-08 00:00:00.0000, 7.274907683945696E+07, 4.554363017460694E+08, 4.687793056512931E+07,
2460476.500000000, A.D. 2024-Jun-15 00:00:00.0000, 6.274453781597867E+07, 4.564378685410489E+08, 4.550517574275815E+07,
2460483.500000000, A.D. 2024-Jun-22 00:00:00.0000, 5.270954915455237E+07, 4.572162604927148E+08, 4.411011072799501E+07,
2460490.500000000, A.D. 2024-Jun-29 00:00:00.0000, 4.264891367031299E+07, 4.577701960452013E+08, 4.269333405940175E+07,
2460497.500000000, A.D. 2024-Jul-06 00:00:00.0000, 3.256748368559561E+07, 4.580984915053608E+08, 4.125545955026186E+07,
2460504.500000000, A.D. 2024-Jul-13 00:00:00.0000, 2.247016004213403E+07, 4.582000618766851E+08, 3.979711608422688E+07,
2460511.500000000, A.D. 2024-Jul-20 00:00:00.0000, 1.236189119389369E+07, 4.580739229349821E+08, 3.831894748706776E+07,
2460518.500000000, A.D. 2024-Jul-27 00:00:00.0000, 2.247671723504719E+06, 4.577191935836716E+08, 3.682161245562842E+07,
2460525.500000000, A.D. 2024-Aug-03 00:00:00.0000, -7.867459446458404E+06, 4.571350981105912E+08, 3.530578448750657E+07,
2460532.500000000, A.D. 2024-Aug-10 00:00:00.0000, -1.797842098344706E+07, 4.563209683384967E+08, 3.377215179498255E+07,
2460539.500000000, A.D. 2024-Aug-17 00:00:00.0000, -2.808009117085133E+07, 4.552762456874204E+08, 3.222141719967118E+07,
2460546.500000000, A.D. 2024-Aug-24 00:00:00.0000, -3.816731000412682E+07, 4.540004831229194E+08, 3.065429800255811E+07,
2460553.500000000, A.D. 2024-Aug-31 00:00:00.0000, -4.823488124364634E+07, 4.524933469248908E+08, 2.907152581285909E+07,
2460560.500000000, A.D. 2024-Sep-07 00:00:00.0000, -5.827757406100398E+07, 4.507546183994548E+08, 2.747384631162709E+07,
2460567.500000000, A.D. 2024-Sep-14 00:00:00.0000, -6.829012419578776E+07, 4.487841965265548E+08, 2.586201902287439E+07,
2460574.500000000, A.D. 2024-Sep-21 00:00:00.0000, -7.826723665264122E+07, 4.465821019530299E+08, 2.423681731113711E+07,
2460581.500000000, A.D. 2024-Sep-28 00:00:00.0000, -8.820359042592505E+07, 4.441484790971895E+08, 2.259902838542908E+07,
2460588.500000000, A.D. 2024-Oct-05 00:00:00.0000, -9.809384158506835E+07, 4.414835963595212E+08, 2.094945297254497E+07,
2460595.500000000, A.D. 2024-Oct-12 00:00:00.0000, -1.079326250838227E+08, 4.385878474172542E+08, 1.928890493587384E+07,
2460602.500000000, A.D. 2024-Oct-19 00:00:00.0000, -1.177145570441804E+08, 4.354617533282967E+08, 1.761821097748691E+07,
2460609.500000000, A.D. 2024-Oct-26 00:00:00.0000, -1.274342375473684E+08, 4.321059646372824E+08, 1.593821036035818E+07,
2460616.500000000, A.D. 2024-Nov-02 00:00:00.0000, -1.370862536750149E+08, 4.285212633296090E+08, 1.424975461449862E+07,
2460623.500000000, A.D. 2024-Nov-09 00:00:00.0000, -1.466651827041014E+08, 4.247085646487284E+08, 1.255370721940815E+07,
2460630.500000000, A.D. 2024-Nov-16 00:00:00.0000, -1.561655954296683E+08, 4.206689187714889E+08, 1.085094326009968E+07,
2460637.500000000, A.D. 2024-Nov-23 00:00:00.0000, -1.655820595679069E+08, 4.164035122859871E+08, 9.142349047972292E+06,
2460644.500000000, A.D. 2024-Nov-30 00:00:00.0000, -1.749091430306779E+08, 4.119136694233990E+08, 7.428821683658183E+06,
2460651.500000000, A.D. 2024-Dec-07 00:00:00.0000, -1.841414166513768E+08, 4.072008534584270E+08, 5.711268557531059E+06,
2460658.500000000, A.D. 2024-Dec-14 00:00:00.0000, -1.932734570503840E+08, 4.022666694971972E+08, 3.990606950840086E+06,
2460665.500000000, A.D. 2024-Dec-21 00:00:00.0000, -2.022998519567873E+08, 3.971128674076458E+08, 2.267763848403245E+06,
2460672.500000000, A.D. 2024-Dec-28 00:00:00.0000, -2.112152060096136E+08, 3.917413419174351E+08, 5.436755393825769E+05,
2460679.500000000, A.D. 2025-Jan-04 00:00:00.0000, -2.200141444397675E+08, 3.861541322467346E+08, -1.180713037624955E+06,
2460686.500000000, A.D. 2025-Jan-11 00:00:00.0000, -2.286913164530331E+08, 3.803534229313177E+08, -2.904448902554661E+06,
2460693.500000000, A.D. 2025-Jan-18 00:00:00.0000, -2.372413992270257E+08, 3.743415449122462E+08, -4.626571585964411E+06,
2460700.500000000, A.D. 2025-Jan-25 00:00:00.0000, -2.456591022738512E+08, 3.681209764105794E+08, -6.346113686208248E+06,
2460707.500000000, A.D. 2025-Feb-01 00:00:00.0000, -2.539391719744205E+08, 3.616943435497483E+08, -8.062101451275378E+06,
2460714.500000000, A.D. 2025-Feb-08 00:00:00.0000, -2.620763962211420E+08, 3.550644207382851E+08, -9.773555388736799E+06,
2460721.500000000, A.D. 2025-Feb-15 00:00:00.0000, -2.700656091346043E+08, 3.482341307858889E+08, -1.147949090765938E+07,
$$EOE